GPS BIIR-5  (PRN 22)    
1 26407U 00040A   26169.73207971  .00000025  00000+0  00000+0 0  9998
2 26407  54.8512 215.1009 0121028 302.4827  16.7895  2.00557662189977
GPS BIIR-8  (PRN 16)    
1 27663U 03005A   26169.67511436  .00000025  00000+0  00000+0 0  9994
2 27663  54.8819 214.9098 0147937  53.0835   1.0670  2.00560468171340
GPS BIIR-11 (PRN 19)    
1 28190U 04009A   26169.40913097 -.00000046  00000+0  00000+0 0  9999
2 28190  54.8286 275.6379 0116203 173.1352 202.0749  2.00554634162977
GPS BIIR-13 (PRN 02)    
1 28474U 04045A   26169.72826587 -.00000088  00000+0  00000+0 0  9992
2 28474  55.1348 324.8340 0169874 316.4539 354.1241  2.00555891158451
GPS BIIRM-1 (PRN 17)    
1 28874U 05038A   26169.42005727 -.00000043  00000+0  00000+0 0  9992
2 28874  54.8770 273.1277 0127877 296.1687 115.6239  2.00565534151860
INMARSAT 4-F2 (SOUTHPA*)
1 28899U 05044A   26169.92333885 -.00000269  00000+0  00000+0 0  9990
2 28899   5.0977  43.7028 0003055  36.4850 302.8513  1.00273058 75537
GPS BIIRM-2 (PRN 31)    
1 29486U 06042A   26169.13028664  .00000049  00000+0  00000+0 0  9996
2 29486  54.7109 151.3015 0106649  54.4413  46.6051  2.00569747144416
GPS BIIRM-3 (PRN 12)    
1 29601U 06052A   26167.42124558  .00000054  00000+0  00000+0 0  9991
2 29601  54.9348 214.0365 0085218  90.8278 270.2339  2.00557832143390
GPS BIIRM-4 (PRN 15)    
1 32260U 07047A   26169.22203142 -.00000033  00000+0  00000+0 0  9996
2 32260  54.0959  80.0229 0166811  87.3939 274.5281  2.00555096136832
COSMOS 2433 (720)       
1 32275U 07052A   26169.32339645 -.00000055  00000+0  00000+0 0  9991
2 32275  65.5762 315.8954 0002576 193.7419 166.2393  2.13103991145088
COSMOS 2432 (719)       
1 32276U 07052B   26169.43377550 -.00000056  00000+0  00000+0 0  9992
2 32276  65.5932 316.0195 0007652 331.4172  57.1212  2.13103035145116
GPS BIIRM-5 (PRN 29)    
1 32384U 07062A   26167.53498160 -.00000029  00000+0  00000+0 0  9993
2 32384  55.0322 274.1789 0035702 165.2122 184.0447  2.00560015135492
COSMOS 2434 (721)       
1 32393U 07065A   26168.15492016  .00000065  00000+0  00000+0 0  9998
2 32393  64.3178 191.9169 0001197 336.0402  97.3647  2.13101292143772
COSMOS 2436 (723)       
1 32395U 07065C   26169.35420748  .00000057  00000+0  00000+0 0  9997
2 32395  64.3266 191.9485 0017258 353.8532  51.9116  2.13100056143751
GPS BIIRM-6 (PRN 07)    
1 32711U 08012A   26169.13324188  .00000048  00000+0  00000+0 0  9999
2 32711  54.4975 149.8869 0211272 247.8593 109.8588  2.00572404133772
GPS BIIRM-8 (PRN 05)    
1 35752U 09043A   26167.28361034 -.00000073  00000+0  00000+0 0  9996
2 35752  56.2097  27.4871 0053768  83.1336  31.1253  2.00554227123340
COSMOS 2456 (730)       
1 36111U 09070A   26167.15434897 -.00000023  00000+0  00000+0 0  9995
2 36111  65.0107  71.0074 0004648 331.0109 212.9328  2.13103754128409
COSMOS 2457 (733)       
1 36112U 09070B   26169.39784396 -.00000027  00000+0  00000+0 0  9990
2 36112  64.9974  70.7748 0002905 122.3444 110.1337  2.13101031128451
COSMOS 2460 (732)       
1 36402U 10007C   26168.56101641 -.00000054  00000+0  00000+0 0  9998
2 36402  65.4202 314.4544 0002116 111.2732 201.1882  2.13101532126737
GPS BIIF-1  (PRN 25)    
1 36585U 10022A   26168.96081780  .00000037  00000+0  00000+0 0  9992
2 36585  54.2701 208.5308 0126293  66.0938 297.8200  2.00562413117616
BEIDOU-2 IGSO-1 (C06)   
1 36828U 10036A   26169.91605882 -.00000085  00000+0  00000+0 0  9992
2 36828  54.3027 162.9431 0059157 225.2467 316.3793  1.00271895 58111
BEIDOU-2 G4 (C04)       
1 37210U 10057A   26169.99026428 -.00000120  00000+0  00000+0 0  9992
2 37210   3.6522  68.9375 0005310 196.2436 158.5276  1.00270591 57305
BEIDOU-2 IGSO-2 (C07)   
1 37256U 10068A   26169.68366918 -.00000219  00000+0  00000+0 0  9990
2 37256  47.5458 271.8126 0055907 212.7128 136.4505  1.00282207 56809
BEIDOU-2 IGSO-3 (C08)   
1 37384U 11013A   26169.61194170 -.00000190  00000+0  00000+0 0  9993
2 37384  62.4088  40.1377 0034295 184.6608  10.0015  1.00267082 55679
GSAT-8 (GAGAN/PRN 127)  
1 37605U 11022A   26169.89515080  .00000078  00000+0  00000+0 0  9990
2 37605   2.1365  81.8041 0002092 198.1643   4.4963  1.00271420 53233
BEIDOU-2 IGSO-4 (C09)   
1 37763U 11038A   26167.68545095  .00000019  00000+0  00000+0 0  9991
2 37763  54.6000 165.6770 0159519 231.4431 207.9860  1.00285273 54642
GSAT0101 (GALILEO-PFM)  
1 37846U 11060A   26167.84840131 -.00000088  00000+0  00000+0 0  9992
2 37846  56.9944 341.7702 0002996  53.3752 306.6473  1.70475567 91115
GSAT0102 (GALILEO-FM2)  
1 37847U 11060B   26166.59146788 -.00000084  00000+0  00000+0 0  9997
2 37847  56.9958 341.8048 0003167  14.2663 339.9688  1.70475803 91090
COSMOS 2476 (744)       
1 37867U 11064A   26169.63043072 -.00000025  00000+0  00000+0 0  9998
2 37867  65.2707  72.8228 0022663 238.8292 313.0156  2.13103712113792
COSMOS 2477 (745)       
1 37868U 11064B   26169.37021781 -.00000024  00000+0  00000+0 0  9992
2 37868  65.2770  72.9109 0019646 240.0598 292.4933  2.13102879113788
COSMOS 2475 (743)       
1 37869U 11064C   26169.40005405 -.00000024  00000+0  00000+0 0  9992
2 37869  65.2838  72.9316 0025435 253.1618 257.3953  2.13101709113799
BEIDOU-2 IGSO-5 (C10)   
1 37948U 11073A   26169.66754444 -.00000192  00000+0  00000+0 0  9998
2 37948  47.6748 271.5267 0113971 221.7702 105.6518  1.00272695 53143
LUCH 5A (SDCM/PRN 140)  
1 37951U 11074B   26169.52461317 -.00000060  00000+0  00000+0 0  9996
2 37951   8.7582  73.7878 0002335  26.9496 161.8222  1.00270425 53063
BEIDOU-2 G5 (C05)       
1 38091U 12008A   26169.97756797  .00000050  00000+0  00000+0 0  9996
2 38091   3.5789  69.6876 0009044 272.8470 335.2536  1.00272333 52380
BEIDOU-2 M3 (C11)       
1 38250U 12018A   26169.26260523 -.00000077  00000+0  00000+0 0  9993
2 38250  55.7570 304.8392 0020121 273.7954  85.9641  1.86229668 95961
BEIDOU-2 M4 (C12)       
1 38251U 12018B   26169.19490603 -.00000076  00000+0  00000+0 0  9999
2 38251  55.6572 304.0554 0011296 275.6093  84.2520  1.86229337 95964
SES-5 (EGNOS/PRN 136)   
1 38652U 12036A   26169.53933329  .00000027  00000+0  00000+0 0  9994
2 38652   0.0452 317.9851 0001720 125.6785  22.2406  1.00269306 44477
BEIDOU-2 M6 (C14)       
1 38775U 12050B   26168.90464876 -.00000054  00000+0  00000+0 0  9993
2 38775  56.5449  62.8706 0013670 357.5201   2.5153  1.86230869 93320
GSAT-10 (GAGAN/PRN 128) 
1 38779U 12051B   26169.91129213 -.00000171  00000+0  00000+0 0  9993
2 38779   0.0757 261.8446 0007763 186.2957 230.0771  1.00272150 50112
GPS BIIF-3  (PRN 24)    
1 38833U 12053A   26169.81188956  .00000047  00000+0  00000+0 0  9995
2 38833  53.5864 143.5327 0180385  65.7792 296.0607  2.00567462 99475
GSAT0103 (GALILEO-FM3)  
1 38857U 12055A   26168.47561804 -.00000011  00000+0  00000+0 0  9993
2 38857  55.8068 101.5377 0004771 306.3432  53.5821  1.70473345 85011
BEIDOU-2 G6 (C02)       
1 38953U 12059A   26169.84022277 -.00000183  00000+0  00000+0 0  9992
2 38953   4.4263  73.5051 0009615 324.4090 255.6782  1.00271655 49929
LUCH 5B (SDCM/PRN 125)  
1 38977U 12061A   26169.89176601 -.00000148  00000+0  00000+0 0  9998
2 38977  10.4892  49.8655 0002465 150.1855  11.8366  1.00272094 49620
COSMOS 2485 (747)       
1 39155U 13019A   26167.91000455 -.00000020  00000+0  00000+0 0  9994
2 39155  65.4195  73.6140 0023135 234.1379 125.6814  2.13103258102273
GPS BIIF-4  (PRN 27)    
1 39166U 13023A   26169.67891132 -.00000041  00000+0  00000+0 0  9999
2 39166  54.5028 268.9129 0141519  51.0513 310.2401  2.00563410 95910
IRNSS-1A                
1 39199U 13034A   26169.89544831  .00000051  00000+0  00000+0 0  9992
2 39199  35.7241  63.8469 0017589 183.2529  37.3106  1.00275723 47380
GPS BIIF-5  (PRN 30)    
1 39533U 14008A   26169.68055942  .00000050  00000+0  00000+0 0  9992
2 39533  53.6549 149.2587 0084219 231.2964 127.9208  2.00559851 89713
ASTRA 5B (EGNOS/PRN 123)
1 39617U 14011B   26169.89956603  .00000131  00000+0  00000+0 0  9996
2 39617   0.0663 310.0831 0001954 147.5970 156.8110  1.00272970 44683
COSMOS 2492 (754)       
1 39620U 14012A   26169.27664962 -.00000055  00000+0  00000+0 0  9993
2 39620  65.2971 313.8989 0010348 324.5914  35.3281  2.13103143 95269
IRNSS-1B                
1 39635U 14017A   26169.76323579  .00000112  00000+0  00000+0 0  9997
2 39635  28.9195 240.3764 0023149 189.5120 167.0529  1.00276864 44803
LUCH 5V (SDCM/PRN 141)  
1 39727U 14023A   26169.80346045 -.00000277  00000+0  00000+0 0  9997
2 39727   5.1369  69.7269 0001864  50.0917 171.1841  1.00273727 44374
GPS BIIF-6  (PRN 06)    
1 39741U 14026A   26168.95890413 -.00000086  00000+0  00000+0 0  9992
2 39741  56.4979 331.4873 0038170 326.5547  33.1958  2.00560834 88559
COSMOS 2500 (755)       
1 40001U 14032A   26169.44639397 -.00000055  00000+0  00000+0 0  9993
2 40001  65.2319 313.6405 0007400 184.7719 175.2102  2.13105740 93488
GPS BIIF-7  (PRN 09)    
1 40105U 14045A   26169.05068652 -.00000019  00000+0  00000+0 0  9999
2 40105  55.3537  88.4306 0033348 118.2439 242.0957  2.00558400 86094
GSAT0201 (GALILEO 5)    
1 40128U 14050A   26168.41693638 -.00000052  00000+0  00000+0 0  9994
2 40128  48.8753 273.4270 1674557 179.4035 180.8790  1.85519962 78320
GSAT0202 (GALILEO 6)    
1 40129U 14050B   26169.21145487 -.00000058  00000+0  00000+0 0  9994
2 40129  48.8910 272.4799 1675952 180.1594 179.8332  1.85520552 80500
IRNSS-1C                
1 40269U 14061A   26169.90132101 -.00000169  00000+0  00000+0 0  9999
2 40269   6.5218  88.8990 0022696   2.6506 223.0203  1.00269060 42700
GPS BIIF-8  (PRN 03)    
1 40294U 14068A   26168.92054840 -.00000079  00000+0  00000+0 0  9998
2 40294  56.9881  30.9264 0067071  70.6155 290.1646  2.00576133 85229
COSMOS 2501 (702K)      
1 40315U 14075A   26169.23921888  .00000057  00000+0  00000+0 0  9995
2 40315  63.6163 190.3355 0022632 212.5216 147.3839  2.13101232 89872
GPS BIIF-9  (PRN 26)    
1 40534U 15013A   26169.55825448  .00000035  00000+0  00000+0 0  9997
2 40534  53.1677 204.1208 0109553  40.1397 320.7269  2.00551281 81856
GSAT0203 (GALILEO 7)    
1 40544U 15017A   26168.79938999 -.00000091  00000+0  00000+0 0  9996
2 40544  56.7854 341.5787 0002098 276.4201  83.5494  1.70476090 69215
GSAT0204 (GALILEO 8)    
1 40545U 15017B   26168.46859940 -.00000091  00000+0  00000+0 0  9999
2 40545  56.7938 341.6062 0001909 248.2807 111.6927  1.70475617 32257
BEIDOU-3S IGSO-1S (C31) 
1 40549U 15019A   26167.83844597 -.00000175  00000+0  00000+0 0  9990
2 40549  49.1960 295.4654 0039047 191.2267 171.7060  1.00249739 41078
GPS BIIF-10 (PRN 08)    
1 40730U 15033A   26169.71683650 -.00000041  00000+0  00000+0 0  9990
2 40730  53.9811 267.0235 0115086  30.2304 330.4710  2.00556109 80027
BEIDOU-3S M2S (C58)     
1 40748U 15037A   26168.86030058 -.00000074  00000+0  00000+0 0  9992
2 40748  54.8706 302.0235 0008383 259.0863 100.8108  1.86231904 74132
BEIDOU-3S M1S (C57)     
1 40749U 15037B   26167.45695291 -.00000070  00000+0  00000+0 0  9999
2 40749  54.8681 302.0590 0003448  61.6955 298.3263  1.86254753 74115
GSAT0205 (GALILEO 9)    
1 40889U 15045A   26144.30399159 -.00000014  00000+0  00000+0 0  9994
2 40889  54.9357 222.4171 0006405 263.0112  96.9692  1.67409242 66562
GSAT0206 (GALILEO 10)   
1 40890U 15045B   26169.04387372  .00000032  00000+0  00000+0 0  9997
2 40890  54.9444 221.5807 0001779 334.3054  25.7732  1.70473811 67050
BEIDOU-3S IGSO-2S (C56) 
1 40938U 15053A   26169.67450890 -.00000137  00000+0  00000+0 0  9991
2 40938  49.2187 258.7643 0065594 192.1216 153.9392  1.00258966 39363
GPS BIIF-11 (PRN 10)    
1 41019U 15062A   26169.27429475 -.00000081  00000+0  00000+0 0  9991
2 41019  56.9600  30.7691 0111896 230.9854 128.0646  2.00566903 77851
GSAT-15 (GAGAN/PRN 139) 
1 41028U 15065A   26169.90025211 -.00000264  00000+0  00000+0 0  9997
2 41028   0.0653 264.6365 0004335 165.5298 254.5668  1.00272923 38816
GSAT0209 (GALILEO 12)   
1 41174U 15079A   26169.21194997 -.00000011  00000+0  00000+0 0  9996
2 41174  55.8280 101.2339 0005250 345.1239  14.8344  1.70473656 64794
GSAT0208 (GALILEO 11)   
1 41175U 15079B   26167.08588476 -.00000013  00000+0  00000+0 0  9991
2 41175  55.8253 101.2890 0004864 343.1626  16.7832  1.70473579 65175
IRNSS-1E                
1 41241U 16003A   26169.73041566 -.00000318  00000+0  00000+0 0  9999
2 41241  33.2372  59.7280 0018940 178.9729  42.9724  1.00277463 38098
GPS BIIF-12 (PRN 32)    
1 41328U 16007A   26164.87780105 -.00000028  00000+0  00000+0 0  9996
2 41328  55.5220  89.5909 0096120 247.4205 111.5460  2.00551861 75773
COSMOS 2514 (751)       
1 41330U 16008A   26169.69294475 -.00000056  00000+0  00000+0 0  9996
2 41330  65.0207 312.9548 0011343 198.1525 161.7970  2.13102579 80658
BEIDOU-2 IGSO-6 (C13)   
1 41434U 16021A   26167.12386227 -.00000150  00000+0  00000+0 0  9994
2 41434  60.2243  38.0497 0057184 231.4868 132.3999  1.00259474 37472
IRNSS-1G                
1 41469U 16027A   26169.68898810 -.00000343  00000+0  00000+0 0  9991
2 41469   5.2016  97.4387 0007548 355.5290 191.4476  1.00265368 37194
GSAT0211 (GALILEO 14)   
1 41549U 16030A   26169.55617319  .00000029  00000+0  00000+0 0  9993
2 41549  55.0948 221.6573 0002964 322.3705  37.6930  1.70473904 62691
GSAT0210 (GALILEO 13)   
1 41550U 16030B   26169.22686126  .00000031  00000+0  00000+0 0  9994
2 41550  55.0944 221.6643 0005022 247.0655 112.9679  1.70473788 62688
BEIDOU-2 G7 (C03)       
1 41586U 16037A   26169.98805469 -.00000360  00000+0  00000+0 0  9992
2 41586   1.7253  69.3291 0006438 357.7339 306.3382  1.00275545  6901
EUTELSAT 117 WEST B (W*)
1 41589U 16038B   26169.87159624 -.00000018  00000+0  00000+0 0  9999
2 41589   0.0100 156.0819 0000601 314.1159 353.6939  1.00271791 36680
GSAT0207 (GALILEO 15)   
1 41859U 16069A   26169.50518031 -.00000012  00000+0  00000+0 0  9998
2 41859  55.4996 101.0498 0005236 330.7132  29.2328  1.70473586 59422
GSAT0212 (GALILEO 16)   
1 41860U 16069B   26168.18543131 -.00000013  00000+0  00000+0 0  9993
2 41860  55.4965 101.0814 0004620   0.5608 359.4079  1.70473702 59654
GSAT0213 (GALILEO 17)   
1 41861U 16069C   26169.13924815 -.00000012  00000+0  00000+0 0  9991
2 41861  55.4992 101.0629 0004872 313.2322  46.7007  1.70474148 59534
GSAT0214 (GALILEO 18)   
1 41862U 16069D   26165.17933449 -.00000010  00000+0  00000+0 0  9993
2 41862  55.4956 101.1651 0004255 319.5735  40.3509  1.70473798 59596
SES-15 (WAAS/PRN 133)   
1 42709U 17026A   26169.65541767  .00000054  00000+0  00000+0 0  9990
2 42709   0.0191 340.5761 0000401  68.3393 324.7415  1.00268456  7441
QZS-2 (QZSS/PRN 194)    
1 42738U 17028A   26169.51919975 -.00000177  00000+0  00000+0 0  9996
2 42738  39.4254 243.1353 0759246 269.2826  83.0137  1.00283521  7643
QZS-3 (QZSS/PRN 199)    
1 42917U 17048A   26169.92004550 -.00000354  00000+0  00000+0 0  9993
2 42917   0.0664 166.6589 0001914 276.9484 281.7512  1.00275282 32274
COSMOS 2522 (752)       
1 42939U 17055A   26169.06146248  .00000058  00000+0  00000+0 0  9991
2 42939  64.0788 191.8550 0011120 242.4701 117.4658  2.13102224 67996
QZS-4 (QZSS/PRN 195)    
1 42965U 17062A   26169.35012919 -.00000360  00000+0  00000+0 0  9994
2 42965  40.1070 343.4662 0745019 271.8091 274.2172  1.00250086 31812
BEIDOU-3 M1 (C19)       
1 43001U 17069A   26168.13305361 -.00000051  00000+0  00000+0 0  9991
2 43001  56.6923  63.0864 0010443 325.9765  33.9976  1.86230842 58607
BEIDOU-3 M2 (C20)       
1 43002U 17069B   26169.14571928 -.00000054  00000+0  00000+0 0  9991
2 43002  56.6917  63.0896 0009148 351.9570   8.0704  1.86230577 58617
GSAT0215 (GALILEO 19)   
1 43055U 17079A   26167.42901799  .00000046  00000+0  00000+0 0  9992
2 43055  55.0735 221.5277 0003119 263.4417  96.6201  1.70474560 52972
GSAT0216 (GALILEO 20)   
1 43056U 17079B   26168.89331476  .00000034  00000+0  00000+0 0  9991
2 43056  55.0732 221.4873 0004317 276.2784  83.7610  1.70474666 53015
GSAT0217 (GALILEO 21)   
1 43057U 17079C   26166.18122907  .00000056  00000+0  00000+0 0  9993
2 43057  55.0707 221.5599 0004444 284.3881  75.6642  1.70474278 52959
GSAT0218 (GALILEO 22)   
1 43058U 17079D   26169.33417944  .00000031  00000+0  00000+0 0  9995
2 43058  55.0717 221.4704 0006036 273.1723  86.8442  1.70474134 53031
BEIDOU-3 M7 (C27)       
1 43107U 18003A   26168.88749162 -.00000076  00000+0  00000+0 0  9997
2 43107  54.3274 302.2910 0004854  94.3023 265.7447  1.86227917 57360
BEIDOU-3 M8 (C28)       
1 43108U 18003B   26169.90615947 -.00000081  00000+0  00000+0 0  9991
2 43108  54.3191 302.2370 0002560 260.9030  99.0620  1.86230763 57397
BEIDOU-3 M4 (C22)       
1 43207U 18018A   26169.27525144 -.00000055  00000+0  00000+0 0  9997
2 43207  56.6521  63.1126 0007707  19.0373 341.0335  1.86230873 56767
BEIDOU-3 M3 (C21)       
1 43208U 18018B   26169.34173260 -.00000056  00000+0  00000+0 0  9995
2 43208  56.6516  63.1145 0008713 341.3004  18.7097  1.86230730 56768
BEIDOU-3 M9 (C29)       
1 43245U 18029A   26167.41170398 -.00000069  00000+0  00000+0 0  9997
2 43245  54.1945 299.9756 0001005 155.7517 204.2422  1.86227970 55886
BEIDOU-3 M10 (C30)      
1 43246U 18029B   26167.88302684 -.00000070  00000+0  00000+0 0  9996
2 43246  54.1918 299.9862 0003800  39.8570 320.1615  1.86229082 55878
IRNSS-1I                
1 43286U 18035A   26166.83981681  .00000062  00000+0  00000+0 0  9991
2 43286  28.7520  74.2167 0017811 181.5598   5.5147  1.00272046 30064
COSMOS 2527 (756)       
1 43508U 18053A   26168.08468753 -.00000019  00000+0  00000+0 0  9990
2 43508  65.5776  73.9111 0006974 239.2690 120.6969  2.13102067 62279
BEIDOU-2 IGSO-7 (C16)   
1 43539U 18057A   26169.91623215 -.00000038  00000+0  00000+0 0  9998
2 43539  55.1945 163.0418 0105215 238.0859 305.6783  1.00250965 29143
GSAT0221 (GALILEO 25)   
1 43564U 18060A   26168.65155293 -.00000090  00000+0  00000+0 0  9994
2 43564  57.1692 341.7677 0002595 303.5364  56.4325  1.70475954 49172
GSAT0222 (GALILEO 26)   
1 43565U 18060B   26169.45779516 -.00000092  00000+0  00000+0 0  9996
2 43565  57.1720 341.7496 0001984 248.5728 111.3994  1.70475697 49231
GSAT0219 (GALILEO 23)   
1 43566U 18060C   26167.33235302 -.00000086  00000+0  00000+0 0  9995
2 43566  57.1726 341.8084 0002038 324.7693  35.2133  1.70475853 49177
GSAT0220 (GALILEO 24)   
1 43567U 18060D   26169.31309456 -.00000092  00000+0  00000+0 0  9995
2 43567  57.1716 341.7543 0002146 313.4062  46.5693  1.70475651 49195
BEIDOU-3 M5 (C23)       
1 43581U 18062A   26169.71794442  .00000056  00000+0  00000+0 0  9999
2 43581  54.0850 182.2515 0005660 289.9886  69.9738  1.86228577 53664
BEIDOU-3 M6 (C24)       
1 43582U 18062B   26169.58142339  .00000055  00000+0  00000+0 0  9996
2 43582  54.0852 182.2454 0004955   8.3191 351.7130  1.86227846 53663
BEIDOU-3 M12 (C26)      
1 43602U 18067A   26165.76115788  .00000093  00000+0  00000+0 0  9990
2 43602  54.1799 181.1228 0007735  29.8475 330.2441  1.86227714 53072
BEIDOU-3 M11 (C25)      
1 43603U 18067B   26169.65490003  .00000056  00000+0  00000+0 0  9998
2 43603  54.1778 180.9540 0004495  12.7503 347.2821  1.86227132 53172
BEIDOU-3 M13 (C32)      
1 43622U 18072A   26169.07281877 -.00000055  00000+0  00000+0 0  9998
2 43622  56.6251  62.6309 0007212 330.3756  29.6261  1.86231145 52676
BEIDOU-3 M14 (C33)      
1 43623U 18072B   26167.86433090 -.00000051  00000+0  00000+0 0  9996
2 43623  56.6260  62.6651 0006189 359.6599   0.3805  1.86231280 52645
BEIDOU-3 M16 (C35)      
1 43647U 18078A   26167.48269892 -.00000069  00000+0  00000+0 0  9992
2 43647  54.0905 300.0107 0007202  41.0576 318.9858  1.86232208 52140
BEIDOU-3 M15 (C34)      
1 43648U 18078B   26169.22283431 -.00000076  00000+0  00000+0 0  9990
2 43648  54.0846 299.9501 0004125  57.8841 302.1506  1.86232335 52191
BEIDOU-3 G1 (C59)       
1 43683U 18085A   26169.92654553 -.00000116  00000+0  00000+0 0  9996
2 43683   2.8733  97.3191 0008058 349.9693 313.3740  1.00270301 28075
COSMOS 2529 (757)       
1 43687U 18086A   26169.11967451  .00000057  00000+0  00000+0 0  9999
2 43687  64.2948 192.5630 0012066 256.5324 103.3830  2.13101950 59308
BEIDOU-3 M17 (C36)      
1 43706U 18093A   26168.42222017  .00000058  00000+0  00000+0 0  9995
2 43706  54.1690 182.2880 0010176 292.0990 142.8043  1.86228332 51544
BEIDOU-3 M18 (C37)      
1 43707U 18093B   26169.24772446  .00000055  00000+0  00000+0 0  9990
2 43707  54.1696 182.2521 0007998 320.6332  39.3337  1.86226419 51550
GPS BIII-1  (PRN 04)    
1 43873U 18109A   26169.17581209 -.00000014  00000+0  00000+0 0  9995
2 43873  55.6828  92.1474 0038174 197.9652 279.6252  2.00561580 55099
BEIDOU-3 IGSO-1 (C38)   
1 44204U 19023A   26169.60920451 -.00000224  00000+0  00000+0 0  9997
2 44204  58.6970  37.6341 0025544 225.7171 340.8879  1.00291017  7221
BEIDOU-2 G8 (C01)       
1 44231U 19027A   26169.92351219 -.00000254  00000+0  00000+0 0  9999
2 44231   1.6632  74.4969 0010153 281.9068  27.7518  1.00270233 26092
COSMOS 2534 (758)       
1 44299U 19030A   26167.15041896  .00000077  00000+0  00000+0 0  9999
2 44299  64.3685 192.6516 0013389 275.0852 148.6554  2.13102184 54908
BEIDOU-3 IGSO-2 (C39)   
1 44337U 19035A   26169.88675894 -.00000097  00000+0  00000+0 0  9993
2 44337  55.2463 158.8478 0039664 216.5160 330.6306  1.00265889 25689
GPS BIII-2  (PRN 18)    
1 44506U 19056A   26169.64883098 -.00000089  00000+0  00000+0 0  9996
2 44506  55.6361 331.0838 0062276 197.6239 165.2029  2.00569581 50100
BEIDOU-3 M24 (C46)      
1 44542U 19061A   26169.31634865  .00000056  00000+0  00000+0 0  9995
2 44542  54.3963 182.6897 0008331 358.6257   1.3978  1.86229078 45812
BEIDOU-3 M23 (C45)      
1 44543U 19061B   26167.55603885  .00000067  00000+0  00000+0 0  9990
2 44543  54.3947 182.7174 0005670 338.0060 193.4228  1.86227264 45783
EUTELSAT 5 WEST B (EGN*)
1 44624U 19067A   26169.89393269 -.00000049  00000+0  00000+0 0  9998
2 44624   0.0627 348.8684 0003017  98.9715 136.1233  1.00269969 24454
BEIDOU-3 M22 (C44)      
1 44793U 19078A   26167.54530678 -.00000069  00000+0  00000+0 0  9996
2 44793  53.9366 299.8507 0006347  50.5966 309.4493  1.86227179 44634
BEIDOU-3 M21 (C43)      
1 44794U 19078B   26169.29611751 -.00000076  00000+0  00000+0 0  9991
2 44794  53.9076 299.7502 0004064  49.2520 310.7784  1.86227678 44678
COSMOS 2544 (759)       
1 44850U 19088A   26169.43716075 -.00000023  00000+0  00000+0 0  9998
2 44850  65.5663  73.6893 0013127 258.8621 101.0278  2.13102753 50745
BEIDOU-3 M19 (C41)      
1 44864U 19090A   26169.30061566 -.00000056  00000+0  00000+0 0  9996
2 44864  56.5601  62.7540 0017907 298.0064 262.3772  1.86231158 44257
BEIDOU-3 M20 (C42)      
1 44865U 19090B   26169.67527745 -.00000058  00000+0  00000+0 0  9995
2 44865  56.5620  62.7761 0015615 312.2190 228.9431  1.86231125 44240
BEIDOU-3 G2 (C60)       
1 45344U 20017A   26169.98207466 -.00000148  00000+0  00000+0 0  9998
2 45344   2.8683  47.3874 0002028  33.2073 260.2461  1.00271728 23275
COSMOS 2545 (760)       
1 45358U 20018A   26167.28584185 -.00000055  00000+0  00000+0 0  9998
2 45358  64.3556 312.4510 0008397 230.0424 129.8687  2.13102431 48644
BEIDOU-3 G3 (C61)       
1 45807U 20040A   26169.98805469 -.00000360  00000+0  00000+0 0  9991
2 45807   2.4525  67.4510 0002358 336.5337 329.3952  1.00265450 22083
GPS BIII-3  (PRN 23)    
1 45854U 20041A   26165.55605578 -.00000064  00000+0  00000+0 0  9993
2 45854  56.6678  29.0455 0063716 204.6721  21.4099  2.00558471 43987
GALAXY 30 (WAAS/PRN 135)
1 46114U 20056C   26169.65628435  .00000030  00000+0  00000+0 0  9993
2 46114   0.0165 349.8313 0002166  96.1871 292.1283  1.00272111 21306
COSMOS 2547 (705K)      
1 46805U 20075A   26169.35243093  .00000057  00000+0  00000+0 0  9990
2 46805  64.5997 192.4366 0009320 239.7975 120.1588  2.13100014 43938
GPS BIII-4  (PRN 14)    
1 46826U 20078A   26169.83468736  .00000028  00000+0  00000+0 0  9990
2 46826  53.9794 210.7115 0073606 207.3113 204.4520  2.00564831 41541
GPS BIII-5  (PRN 11)    
1 48859U 21054A   26167.95784770 -.00000087  00000+0  00000+0 0  9999
2 48859  55.1744 332.4683 0025342 228.5515  94.2637  2.00568788 36740
QZS-1R (QZSS/PRN 196)   
1 49336U 21096A   26169.67274185 -.00000287  00000+0  00000+0 0  9993
2 49336  37.4655  79.5604 0754676 271.8345 291.5952  1.00254899 17024
GSAT0223 (GALILEO 27)   
1 49809U 21116A   26168.28632796 -.00000089  00000+0  00000+0 0  9993
2 49809  57.1604 341.6715 0001514 187.4025 353.2654  1.70475765 28189
GSAT0224 (GALILEO 28)   
1 49810U 21116B   26168.98509303 -.00000091  00000+0  00000+0 0  9992
2 49810  57.1613 341.6514 0001177 159.9709 202.1698  1.70475877 28225
COSMOS 2557 (706K)      
1 52984U 22075A   26169.04745899 -.00000057  00000+0  00000+0 0  9995
2 52984  64.2982 314.4552 0010271 274.5611  85.3098  2.13102015 30733
COSMOS 2559 (707K)      
1 54031U 22130A   26169.33634979 -.00000058  00000+0  00000+0 0  9991
2 54031  64.2705 314.5280 0012585 178.2040 181.7898  2.13101593 28710
COSMOS 2564 (761)       
1 54377U 22161A   26169.64887167  .00000056  00000+0  00000+0 0  9998
2 54377  64.7418 192.6633 0012206 224.8297 135.1194  2.13102010 27668
GPS BIII-6  (PRN 28)    
1 55268U 23009A   26167.62160980  .00000044  00000+0  00000+0 0  9990
2 55268  55.1227 148.5411 0006250 321.9869 156.3274  2.00571344 25231
BEIDOU-3 G4 (C62)       
1 56564U 23066A   26169.99386138 -.00000287  00000+0  00000+0 0  9990
2 56564   0.4841 332.0413 0004387 179.7829 253.2324  1.00273174 11419
NVS-01 (IRNSS-1J)       
1 56759U 23076A   26169.92056550 -.00000343  00000+0  00000+0 0  9995
2 56759   2.1610 244.2649 0003090  35.8922  87.8029  1.00264064 11139
COSMOS 2569 (703K)      
1 57517U 23114A   26169.66121459 -.00000026  00000+0  00000+0 0  9991
2 57517  65.3029  72.5707 0010625 296.8496  63.0808  2.13103689 22291
BEIDOU-3 M28 (C50)      
1 58654U 23207A   26169.37320185 -.00000058  00000+0  00000+0 0  9997
2 58654  55.7537  62.2629 0003249 347.9613  12.0730  1.86229635 16866
BEIDOU-3 M26 (C48)      
1 58655U 23207B   26168.63373978 -.00000055  00000+0  00000+0 0  9991
2 58655  55.7554  62.2745 0003074 320.8163  39.2030  1.86229688 16830
GSAT0225 (GALILEO 29)   
1 59598U 24079A   26168.72201659 -.00000013  00000+0  00000+0 0  9996
2 59598  55.1202 101.0649 0001842 301.4037 252.5080  1.70473787 13322
GSAT0227 (GALILEO 30)   
1 59600U 24079C   26169.17603588 -.00000012  00000+0  00000+0 0  9996
2 59600  55.1155 101.0510 0002262  52.1079 307.8860  1.70473946 13386
GSAT0232 (GALILEO 32)   
1 61182U 24167A   26168.19866833  .00000040  00000+0  00000+0 0  9997
2 61182  55.1848 221.3134 0006233 227.6333 108.1105  1.70474251 10870
GSAT0226 (GALILEO 31)   
1 61183U 24167B   26169.23528396  .00000032  00000+0  00000+0 0  9994
2 61183  55.1833 221.2920 0002936 228.3860 114.8908  1.70474256 10865
BEIDOU-3 M25 (C47)      
1 61186U 24168B   26169.45986365 -.00000078  00000+0  00000+0 0  9997
2 61186  54.4721 302.1976 0002994 300.4500  10.7981  1.86229897 11809
BEIDOU-3 M27 (C49)      
1 61187U 24168C   26169.39194633 -.00000078  00000+0  00000+0 0  9990
2 61187  54.4674 302.1829 0001544  51.7463 348.9950  1.86229958  9287
GPS BIII-7  (PRN 01)    
1 62339U 24242A   26169.83198318 -.00000092  00000+0  00000+0 0  9992
2 62339  54.8480 334.1138 0017586   4.3197 352.3728  2.00571448 11281
QZS-6 (QZSS/PRN 200)    
1 62876U 25023A   26169.90025211 -.00000239  00000+0  00000+0 0  9998
2 62876   0.0578  72.3004 0001815  19.9785 229.4587  1.00270305  4965
COSMOS 2584 (704K)      
1 63130U 25042A   26167.20175859 -.00000022  00000+0  00000+0 0  9998
2 63130  65.0842  72.8354 0005745 226.1824 133.8028  2.13103849 10024
GPS BIII-8  (PRN 21)    
1 64202U 25116A   26169.32753116 -.00000085  00000+0  00000+0 0  9993
2 64202  55.2356  31.0839 0008570 338.5670 196.7311  2.00575695  7899
COSMOS 2596 (708K)      
1 65590U 25206B   26169.43366895 -.00000057  00000+0  00000+0 0  9999
2 65590  64.6338 314.9413 0010998 311.7055  76.8578  2.13100598  5949
GSAT0233 (GALILEO 33)   
1 67160U 25302A   26169.27159983 -.00000012  00000+0  00000+0 0  9992
2 67160  54.3362 102.0997 0000774 222.6164 239.4489  1.70473916  3149
GSAT0234 (GALILEO 34)   
1 67162U 25302C   26169.10704436 -.00000012  00000+0  00000+0 0  9995
2 67162  54.3376 102.1035 0002962 311.0872 230.0912  1.70473903  3199
GPS BIII-9  (PRN 20)    
1 67588U 26017A   26168.19729855 -.00000021  00000+0  00000+0 0  9991
2 67588  55.0883  88.7549 0022080 258.4523 101.2987  2.00571090431614
GPS BIII-10 (PRN 13)    
1 68791U 26087A   26158.43909353  .00000057  00000+0  00000+0 0  9992
2 68791  54.9638 208.1735 0020931 107.2972 251.8874  2.00569573   638
TEME example
1 00005U 58002B   00179.78495062  .00000023  00000-0  28098-4 0  4753
2 00005  34.2682 348.7242 1859667 331.7664  19.3264 10.82419157413667     0.00      4320.0        360.00
#   DELTA 1 DEB         # near earth normal drag equation
#                       # perigee = 377.26km, so moderate drag case
1 06251U 62025E   06176.82412014  .00008885  00000-0  12808-3 0  3985
2 06251  58.0579  54.0425 0030035 139.1568 221.1854 15.56387291  6774      0.0      2880.0        120.00
#   MOLNIYA 2-14              # 12h resonant ecc in 0.65 to 0.7 range
1 08195U 75081A   06176.33215444  .00000099  00000-0  11873-3 0   813
2 08195  64.1586 279.0717 6877146 264.7651  20.2257  2.00491383225656      0.0      2880.0        120.00


